{"type":"FeatureCollection","features":[{"type":"Feature","geometry":{"type":"LineString","coordinates":[[-77.5798999999999,-1.01469999999996],[-77.5461,-0.968599999999989],[-77.5243,-0.898799999999932],[-77.4851,-0.846199999999947],[-77.4485,-0.785899999999973],[-77.4342,-0.760699999999934],[-77.4165,-0.740099999999929],[-77.4084,-0.72549999999996],[-77.3939,-0.709099999999985],[-77.3844999999999,-0.682199999999955],[-77.3634,-0.659599999999942],[-77.3543,-0.633399999999944],[-77.3477,-0.602199999999934],[-77.3185,-0.526199999999967],[-77.2995,-0.48759999999992],[-77.2977,-0.435299999999925],[-77.3020999999999,-0.372799999999929],[-77.2945999999999,-0.315399999999959],[-77.2931,-0.223999999999938],[-77.2852,-0.184299999999956],[-77.2915,-0.150099999999954],[-77.2962,-0.133999999999956],[-77.2992,-0.0884999999999538],[-77.3443,0.067600000000035],[-77.4541,0.219600000000084]]},"properties":{"OBJECTID":1,"Nombre":"Napo","Slip_Geod":2.5,"Slip_Geol":null,"Mmax":7.80000019,"Dip":30,"Inc_inf":2,"Inc_sup":3,"MeFocal":"RF","Longitud":151}},{"type":"Feature","geometry":{"type":"LineString","coordinates":[[-77.8405,0.100100000000046],[-77.8149,0.133800000000056],[-77.7954999999999,0.158300000000049],[-77.7843,0.171900000000047],[-77.77,0.193000000000031],[-77.7472,0.225800000000058],[-77.7175,0.255700000000042],[-77.7127,0.262000000000055],[-77.7049,0.271400000000023],[-77.6994999999999,0.279700000000043],[-77.6944,0.286800000000013],[-77.6915,0.291500000000048],[-77.687,0.299200000000037],[-77.6803,0.308300000000027],[-77.6779,0.314200000000036],[-77.672,0.320700000000038],[-77.6682,0.326700000000073],[-77.6657999999999,0.32920000000006],[-77.6631,0.332000000000051],[-77.6573,0.336800000000036],[-77.055,1.04000000000001]]},"properties":{"OBJECTID":2,"Nombre":"Chingual","Slip_Geod":8.10000038,"Slip_Geol":9.80000019,"Mmax":7.5999999,"Dip":90,"Inc_inf":7,"Inc_sup":9,"MeFocal":"SS","Longitud":33}},{"type":"Feature","geometry":{"type":"LineString","coordinates":[[-79.1871,-2.25649999999995],[-79.1754999999999,-2.23749999999996],[-79.0955999999999,-2.19719999999995],[-79.085,-2.18839999999995],[-79.0762999999999,-2.17519999999997],[-79.0681999999999,-2.16799999999996],[-79.0581,-2.15689999999996],[-79.0485,-2.14619999999997],[-79.0413,-2.13639999999998],[-79.0352999999999,-2.12969999999995],[-79.0286,-2.12079999999999],[-79.0208,-2.11069999999996],[-79.0146,-2.10379999999998],[-79.0094999999999,-2.09509999999996],[-78.9988,-2.08089999999993],[-78.9949,-2.07289999999996],[-78.9829999999999,-2.04399999999993],[-78.9664,-2.00179999999994],[-78.9619,-1.99569999999995],[-78.9562999999999,-1.98769999999995],[-78.9507,-1.97779999999996],[-78.9467999999999,-1.97009999999995],[-78.9403,-1.95859999999993],[-78.9337,-1.95029999999997],[-78.9277999999999,-1.94209999999991],[-78.9238,-1.93159999999995],[-78.9209999999999,-1.92479999999994],[-78.9177,-1.91469999999993],[-78.9132999999999,-1.90379999999993],[-78.9064,-1.87839999999994],[-78.902,-1.87149999999999],[-78.8968,-1.86179999999997],[-78.8919,-1.85219999999993],[-78.8875,-1.84409999999997],[-78.8814,-1.83599999999996],[-78.879,-1.82799999999998],[-78.8771,-1.82269999999994],[-78.8677,-1.80459999999993],[-78.8657,-1.79979999999995],[-78.8627,-1.79529999999994],[-78.8586,-1.78779999999994],[-78.8575,-1.78579999999994],[-78.857,-1.78469999999992],[-78.8563,-1.78399999999994],[-78.8556,-1.78329999999994],[-78.8552,-1.78249999999998],[-78.8543999999999,-1.78109999999999],[-78.8536,-1.77989999999994],[-78.8525999999999,-1.77849999999995],[-78.8518999999999,-1.77739999999995],[-78.8502,-1.77569999999997],[-78.8482999999999,-1.77259999999997],[-78.8471,-1.77079999999996],[-78.8461999999999,-1.76939999999996],[-78.8457,-1.76879999999994],[-78.8447,-1.76719999999995],[-78.8439999999999,-1.76619999999997],[-78.8429,-1.76529999999997],[-78.8418,-1.76389999999998],[-78.8407999999999,-1.76259999999997],[-78.8395,-1.76119999999998],[-78.8387999999999,-1.75989999999995],[-78.838,-1.75899999999997],[-78.8372,-1.75719999999995],[-78.8362999999999,-1.75579999999996],[-78.835,-1.75389999999993],[-78.8328,-1.75139999999994],[-78.8312999999999,-1.74959999999994],[-78.8301999999999,-1.74759999999998],[-78.8287999999999,-1.74429999999996],[-78.8271999999999,-1.74089999999996],[-78.8223,-1.73679999999996],[-78.8205,-1.73029999999995],[-78.8194999999999,-1.72849999999995],[-78.8189,-1.72799999999996],[-78.8158,-1.72309999999994],[-78.8122,-1.71859999999998],[-78.8067,-1.71119999999997],[-78.8045999999999,-1.70889999999997],[-78.7993,-1.70459999999997],[-78.7979,-1.70339999999994],[-78.7959999999999,-1.70119999999997],[-78.7728999999999,-1.66409999999998],[-78.7546,-1.64099999999996],[-78.7349,-1.62079999999998],[-78.7255,-1.61069999999996],[-78.7145,-1.59759999999994],[-78.7000532609999,-1.58532633699998],[-78.6923,-1.57619999999996],[-78.688,-1.57149999999996],[-78.6809,-1.55859999999997],[-78.672,-1.54899999999998],[-78.6618999999999,-1.53539999999992],[-78.6458,-1.52019999999993],[-78.6378999999999,-1.51359999999993],[-78.6269999999999,-1.50959999999998],[-78.5918,-1.47969999999998],[-78.5404,-1.38909999999993],[-78.5305999999999,-1.37619999999993],[-78.5141,-1.36289999999997],[-78.5033,-1.35699999999997],[-78.4928,-1.35069999999997],[-78.4874,-1.33629999999994],[-78.4795999999999,-1.31639999999993],[-78.4666999999999,-1.31289999999996],[-78.4616,-1.30319999999995],[-78.4571,-1.29469999999999],[-78.4524,-1.17919999999998],[-78.4447,-1.16999999999997],[-78.3987,-1.14609999999993],[-78.3568,-1.09919999999995],[-78.2972,-0.977299999999963]]},"properties":{"OBJECTID":3,"Nombre":"Pallatanga","Slip_Geod":7.4000001,"Slip_Geol":3.0999999,"Mmax":7.9000001,"Dip":75,"Inc_inf":7,"Inc_sup":8,"MeFocal":"SS","Longitud":180}},{"type":"Feature","geometry":{"type":"LineString","coordinates":[[-78.6129999999999,-0.541999999999974],[-78.5409999999999,-0.42849999999992],[-78.5082,-0.377099999999934],[-78.4093999999999,-0.14419999999997],[-78.4102999999999,0.0238000000000499],[-78.4433999999999,0.121000000000028]]},"properties":{"OBJECTID":4,"Nombre":"UIO1","Slip_Geod":4.5,"Slip_Geol":1,"Mmax":7.30000019,"Dip":55,"Inc_inf":4,"Inc_sup":5,"MeFocal":"RF","Longitud":80}},{"type":"Feature","geometry":{"type":"LineString","coordinates":[[-78.2429999999999,-1.51099999999997],[-78.239,-1.40399999999994],[-78.21,-1.28599999999994],[-78.1609999999999,-1.17699999999997],[-78.1424,-1.14219999999995],[-78.1127999999999,-1.07539999999995],[-78.0821999999999,-0.999899999999975],[-78.0468,-0.883299999999953],[-78.0085,-0.840099999999949],[-77.9919999999999,-0.808499999999934],[-77.9782,-0.767199999999936],[-77.9617,-0.731499999999932],[-77.9177999999999,-0.622899999999953],[-77.8889,-0.515699999999937],[-77.8899,-0.51419999999996],[-77.8794,-0.482599999999933],[-77.8785,-0.465699999999965],[-77.8733999999999,-0.451499999999962],[-77.8665999999999,-0.437199999999957],[-77.8602,-0.427899999999965],[-77.8579999999999,-0.41389999999995],[-77.8575,-0.394199999999955],[-77.8577999999999,-0.392499999999937],[-77.8498999999999,-0.380499999999918],[-77.8498999999999,-0.372599999999978],[-77.8513,-0.362399999999989],[-77.8582,-0.339899999999952],[-77.8627999999999,-0.324699999999951],[-77.8633,-0.309099999999946],[-77.8586999999999,-0.295499999999949],[-77.8567,-0.295299999999946],[-77.8543,-0.277999999999962],[-77.8579999999999,-0.261399999999985],[-77.8567,-0.251799999999952],[-77.855,-0.23709999999993],[-77.8495,-0.22539999999999],[-77.8425999999999,-0.211699999999953],[-77.8389,-0.201999999999944],[-77.8325,-0.189899999999974],[-77.8296999999999,-0.179699999999973],[-77.8267999999999,-0.173699999999938],[-77.823,-0.170599999999983],[-77.8186,-0.165999999999936],[-77.8164,-0.160199999999979],[-77.8160999999999,-0.154899999999951],[-77.8133999999999,-0.134899999999965],[-77.8112,-0.118599999999966],[-77.8101,-0.102399999999942],[-77.8101,-0.0882999999999518],[-77.8085,-0.0703999999999615],[-77.8072999999999,-0.0591999999999755],[-77.806,-0.051699999999925],[-77.797,-0.0204999999999784],[-77.7757,0.0231000000000556],[-77.7449,0.0795000000000663]]},"properties":{"OBJECTID":5,"Nombre":"Cosanga","Slip_Geod":9.5,"Slip_Geol":9,"Mmax":7.80000019,"Dip":40,"Inc_inf":9,"Inc_sup":10,"MeFocal":"RF","Longitud":189}},{"type":"Feature","geometry":{"type":"LineString","coordinates":[[-78.2622,0.25020000000005],[-78.0697,0.491800000000077],[-78.0586,0.500500000000038],[-78.0463999999999,0.517300000000017],[-78.0393999999999,0.527800000000059],[-78.0282999999999,0.536400000000083],[-78.0184,0.544100000000072],[-78.011,0.556500000000019],[-77.9988,0.564600000000037],[-77.9415,0.603400000000022],[-77.9406,0.604400000000045],[-77.9304,0.611100000000011],[-77.919,0.62750000000005],[-77.9065,0.642100000000032],[-77.886,0.663200000000068],[-77.8762,0.679200000000039],[-77.8681999999999,0.691400000000035],[-77.854,0.712800000000073],[-77.849,0.726500000000034],[-77.8457999999999,0.736300000000018],[-77.8432,0.73940000000005],[-77.8389999999999,0.745000000000068],[-77.7632,0.856400000000075],[-77.7177,0.968700000000066],[-77.5992,1.04800000000005]]},"properties":{"OBJECTID":6,"Nombre":"El Angel","Slip_Geod":2,"Slip_Geol":null,"Mmax":7.69999981,"Dip":90,"Inc_inf":1,"Inc_sup":3,"MeFocal":"SS","Longitud":117}},{"type":"Feature","geometry":{"type":"LineString","coordinates":[[-80.4509,-3.17859999999995],[-80.2540999999999,-3.00189999999999],[-80.1761999999999,-2.94919999999997],[-80.1677999999999,-2.94259999999997],[-80.1621,-2.93759999999998],[-80.1562,-2.93349999999999],[-80.1515,-2.92939999999994],[-80.1437999999999,-2.92269999999996],[-79.9048,-2.74369999999993],[-79.7911,-2.67169999999994]]},"properties":{"OBJECTID":7,"Nombre":"Puná","Slip_Geod":7.0999999,"Slip_Geol":6,"Mmax":7.5,"Dip":90,"Inc_inf":6,"Inc_sup":8,"MeFocal":"SS","Longitud":93}},{"type":"Feature","geometry":{"type":"LineString","coordinates":[[-78.6203,-1.14759999999994],[-78.6238999999999,-1.09799999999995],[-78.6255,-1.09099999999996],[-78.6256999999999,-1.08319999999998],[-78.6272999999999,-1.07609999999994],[-78.6279,-1.06829999999997],[-78.6298,-1.06059999999998],[-78.6288,-1.05289999999998],[-78.6290999999999,-1.04599999999993],[-78.6274999999999,-1.04099999999995],[-78.6265999999999,-1.03449999999998],[-78.6236,-1.02949999999993],[-78.6215999999999,-1.02319999999998],[-78.6203,-1.01729999999999],[-78.6212,-1.01249999999994],[-78.6213,-1.01019999999995],[-78.6215999999999,-1.00699999999995],[-78.6372,-0.936899999999987],[-78.6496999999999,-0.889299999999938],[-78.66,-0.829299999999941],[-78.6659,-0.760099999999966],[-78.6781999999999,-0.732499999999954]]},"properties":{"OBJECTID":8,"Nombre":"UIO2","Slip_Geod":1,"Slip_Geol":2.0999999,"Mmax":7.19999981,"Dip":45,"Inc_inf":0,"Inc_sup":2,"MeFocal":"RF","Longitud":47}}]}