{"type":"FeatureCollection","features":[{"type":"Feature","geometry":{"type":"Polygon","coordinates":[[[-77.9364032519999,-1.50632420299996],[-78.4,-1.59999999999998],[-78.236890143,-0.950786610999956],[-77.97,0.100000000000019],[-77.58,0.0700000000000465],[-77.8565320129999,-1.12466238299995],[-77.9364032519999,-1.50632420299996]]]},"properties":{"OBJECTID_1":1,"MMax":7.8,"Nombre":"Cosanga","Depth":0,"Range":35,"Tipo":"Crustal Sources","type":1,"DMin":0,"DMax":35,"Dip":25,"Rake":90,"Strike":195,"Fuente":"Cosanga","a":2.7701,"b":"0.71","λMw_45":0.3866,"M0_for_GR":4.8,"Number_of_events_M0":13,"Mmax_obs":7.1,"Depth_range":"0-35"}},{"type":"Feature","geometry":{"type":"Polygon","coordinates":[[[-77.2,-5.99999999999996],[-78.1,-4.99999999999996],[-77.6,-4.89999999999999],[-77.296673794,-3.95487051499993],[-75.9,-5.99999999999996],[-77.2,-5.99999999999996]]]},"properties":{"OBJECTID_1":2,"MMax":7.7,"Nombre":"Moyobamba","Depth":0,"Range":35,"Tipo":"Crustal Sources","type":1,"DMin":0,"DMax":35,"Dip":25,"Rake":90,"Strike":160,"Fuente":"Moyobamba","a":4.4484,"b":"0.98","λMw_45":1.082,"M0_for_GR":4.8,"Number_of_events_M0":28,"Mmax_obs":6.9,"Depth_range":"0-35"}},{"type":"Feature","geometry":{"type":"Polygon","coordinates":[[[-77.6,-4.89999999999999],[-78.1,-4.99999999999996],[-78.6199999999999,-2.81999999999994],[-78.4,-1.59999999999998],[-77.9364032519999,-1.50632420299996],[-77.8565320129999,-1.12466238299995],[-77.340900368,-1.01535521999994],[-77.05,-1.39999999999999],[-77.0569377469999,-3.21354859099995],[-77.296673794,-3.95487051499993],[-77.6,-4.89999999999999]]]},"properties":{"OBJECTID_1":3,"MMax":7.8,"Nombre":"Cutucú","Depth":0,"Range":35,"Tipo":"Crustal Sources","type":1,"DMin":0,"DMax":35,"Dip":45,"Rake":60,"Strike":190,"Fuente":"Cutucú","a":5.4443,"b":"1.17","λMw_45":1.436,"M0_for_GR":4.5,"Number_of_events_M0":69,"Mmax_obs":7,"Depth_range":"0-35"}},{"type":"Feature","geometry":{"type":"Polygon","coordinates":[[[-77.267566667,0.497296296000041],[-77.58,0.0700000000000465],[-77.97,0.100000000000019],[-77.02,1.22000000000003],[-76.77,1.17000000000005],[-77.267566667,0.497296296000041]]]},"properties":{"OBJECTID_1":4,"MMax":7.6,"Nombre":"Chingual","Depth":0,"Range":35,"Tipo":"Crustal Sources","type":1,"DMin":0,"DMax":35,"Dip":90,"Rake":180,"Strike":35,"Fuente":"Chingual","a":3.0831,"b":"0.98*","λMw_45":0.046,"M0_for_GR":4.2,"Number_of_events_M0":3,"Mmax_obs":7.4,"Depth_range":"0-35"}},{"type":"Feature","geometry":{"type":"Polygon","coordinates":[[[-77.340900368,-1.01535521999994],[-77.8565320129999,-1.12466238299995],[-77.58,0.0700000000000465],[-77.267566667,0.497296296000041],[-76.9999999999999,0.200000000000038],[-77.340900368,-1.01535521999994]]]},"properties":{"OBJECTID_1":5,"MMax":7.8,"Nombre":"Napo","Depth":0,"Range":35,"Tipo":"Crustal Sources","type":1,"DMin":0,"DMax":35,"Dip":25,"Rake":90,"Strike":195,"Fuente":"Napo","a":3.4369,"b":"0.98*","λMw_45":0.106,"M0_for_GR":4.5,"Number_of_events_M0":5,"Mmax_obs":5.6,"Depth_range":"0-35"}},{"type":"Feature","geometry":{"type":"Polygon","coordinates":[[[-78.4,-1.59999999999998],[-78.9,-2.24999999999995],[-79.270332777,-2.26768315199996],[-78.86563268,-1.60169754699996],[-78.4999999999999,-0.99999999999995],[-78.236890143,-0.950786610999956],[-78.4,-1.59999999999998]]]},"properties":{"OBJECTID_1":6,"MMax":7.9,"Nombre":"Pallatanga","Depth":0,"Range":35,"Tipo":"Crustal Sources","type":1,"DMin":0,"DMax":35,"Dip":90,"Rake":180,"Strike":30,"Fuente":"Pallatanga","a":2.8012,"b":"0.73","λMw_45":0.341,"M0_for_GR":4.5,"Number_of_events_M0":18,"Mmax_obs":7.6,"Depth_range":"0-35"}},{"type":"Feature","geometry":{"type":"Polygon","coordinates":[[[-78.249209334,0.127274127000008],[-78.4999999999999,-0.99999999999995],[-78.86563268,-1.60169754699996],[-78.8,-0.398017596999996],[-78.4299999999999,0.150000000000029],[-78.249209334,0.127274127000008]]]},"properties":{"OBJECTID_1":7,"MMax":7.3,"Nombre":"Quito-Latacunga","Depth":0,"Range":35,"Tipo":"Crustal Sources","type":1,"DMin":0,"DMax":35,"Dip":55,"Rake":90,"Strike":190,"Fuente":"Quito-Latacunga","a":2.6797,"b":"0.7","λMw_45":0.336,"M0_for_GR":4.5,"Number_of_events_M0":17,"Mmax_obs":6.4,"Depth_range":"0-35"}},{"type":"Feature","geometry":{"type":"Polygon","coordinates":[[[-80.6,-3.59999999999998],[-80.600133335,-2.79801901699996],[-79.270332777,-2.26768315199996],[-78.9,-2.24999999999995],[-80.6,-3.59999999999998]]]},"properties":{"OBJECTID_1":8,"MMax":7.5,"Nombre":"Puna","Depth":0,"Range":35,"Tipo":"Crustal Sources","type":1,"DMin":0,"DMax":35,"Dip":90,"Rake":180,"Strike":60,"Fuente":"Puna","a":3.583,"b":"0.98*","λMw_45":0.149,"M0_for_GR":4.5,"Number_of_events_M0":7,"Mmax_obs":5.2,"Depth_range":"0-35"}},{"type":"Feature","geometry":{"type":"Polygon","coordinates":[[[-77.02,1.22000000000003],[-77.97,0.100000000000019],[-78.249209334,0.127274127000008],[-78.4299999999999,0.150000000000029],[-78.8,-0.398017596999996],[-78.79982154,0.202974327000057],[-77.44982154,1.30297432700007],[-77.02,1.22000000000003]]]},"properties":{"OBJECTID_1":9,"MMax":7.7,"Nombre":"El Angel","Depth":0,"Range":35,"Tipo":"Crustal Sources","type":1,"DMin":0,"DMax":35,"Dip":90,"Rake":180,"Strike":35,"Fuente":"El Angel","a":3.4503,"b":"0.98*","λMw_45":0.127,"M0_for_GR":4.5,"Number_of_events_M0":9,"Mmax_obs":7.2,"Depth_range":"0-35"}},{"type":"Feature","geometry":{"type":"Polygon","coordinates":[[[-80.2537999999999,-0.851110268999939],[-80.56982154,-1.59702567299996],[-80.600540364,-2.39731810599995],[-81.4999999999999,-2.87999999999994],[-81.45,-2.29999999999996],[-81.4999999999999,-1.79999999999995],[-81.138534165,-0.512128790999953],[-80.2537999999999,-0.851110268999939]]]},"properties":{"OBJECTID_1":10,"MMax":8,"Nombre":"La Plata","Depth":0,"Range":35,"Tipo":"Interface Sources","type":2,"DMin":0,"DMax":40,"Dip":20,"Rake":90,"Strike":12,"Fuente":"La Plata","a":3.5598,"b":"0.8","λMw_45":0.915,"M0_for_GR":4.5,"Number_of_events_M0":46,"Mmax_obs":7.8,"Depth_range":"0-40"}},{"type":"Feature","geometry":{"type":"Polygon","coordinates":[[[-78.54982154,2.00297432700006],[-80.07,-0.908199999999963],[-80.2537999999999,-0.851110268999939],[-81.138534165,-0.512128790999953],[-81.029116497,-0.247530228999951],[-80.0196000189999,1.59416586400003],[-78.6,4.00000000000006],[-77.3,4.00000000000006],[-78.54982154,2.00297432700006]]]},"properties":{"OBJECTID_1":11,"MMax":8.8,"Nombre":"Esmeraldas","Depth":0,"Range":50,"Tipo":"Interface Sources","type":2,"DMin":0,"DMax":50,"Dip":20,"Rake":90,"Strike":30,"Fuente":"Esmeraldas","a":4.0002,"b":"0.81","λMw_45":2.341,"M0_for_GR":4.8,"Number_of_events_M0":74,"Mmax_obs":8.8,"Depth_range":"0-50"}},{"type":"Feature","geometry":{"type":"Polygon","coordinates":[[[-80.0196000189999,1.59416586400003],[-80.53,1.92000000000006],[-79.52,4.00000000000006],[-78.6,4.00000000000006],[-80.0196000189999,1.59416586400003]]]},"properties":{"OBJECTID_1":12,"MMax":6,"Nombre":"Yaquina Shallow","Depth":0,"Range":50,"Tipo":"In-slab sources","type":1,"DMin":0,"DMax":50,"Dip":20,"Rake":180,"Strike":90,"Fuente":"Yaquina Shallow","a":6.7516,"b":"1.39","λMw_45":3.012,"M0_for_GR":4.8,"Number_of_events_M0":55,"Mmax_obs":6.1,"Depth_range":"0-50"}},{"type":"Feature","geometry":{"type":"Polygon","coordinates":[[[-80.662042594,-5.99999999999996],[-81.689,-6.82299999999999],[-81.85,-5.99999999999996],[-81.95,-5.14999999999997],[-81.883546468,-4.62918959099995],[-80.6,-3.59999999999998],[-80.66,-4.11999999999995],[-80.6,-4.62999999999994],[-80.56,-4.96999999999997],[-80.4,-5.78999999999996],[-80.6,-5.97513964299997],[-80.662042594,-5.99999999999996]]]},"properties":{"OBJECTID_1":13,"MMax":8.2,"Nombre":"Talara","Depth":0,"Range":35,"Tipo":"Interface Sources","type":2,"DMin":0,"DMax":40,"Dip":12,"Rake":90,"Strike":0,"Fuente":"Talara","a":4.3639,"b":"0.91","λMw_45":1.916,"M0_for_GR":4.8,"Number_of_events_M0":53,"Mmax_obs":7.1,"Depth_range":"0-40"}},{"type":"Feature","geometry":{"type":"Polygon","coordinates":[[[-78.1,-4.99999999999996],[-77.2,-5.99999999999996],[-80.4,-5.78999999999996],[-80.56,-4.96999999999997],[-80.6,-4.62999999999994],[-80.66,-4.11999999999995],[-80.6,-3.59999999999998],[-78.9,-2.24999999999995],[-78.4,-1.59999999999998],[-78.6199999999999,-2.81999999999994],[-78.1,-4.99999999999996]]]},"properties":{"OBJECTID_1":14,"MMax":7.5,"Nombre":"BGS","Depth":0,"Range":35,"Tipo":"Background sources","type":1,"DMin":0,"DMax":35,"Dip":90,"Rake":180,"Strike":30,"Fuente":"BGS","a":4.5428,"b":"1.04","λMw_45":0.697,"M0_for_GR":4.5,"Number_of_events_M0":36,"Mmax_obs":7.2,"Depth_range":"0-35"}},{"type":"Feature","geometry":{"type":"Polygon","coordinates":[[[-77.44982154,1.30297432700007],[-78.79982154,0.202974327000057],[-78.8,-0.398017596999996],[-78.86563268,-1.60169754699996],[-79.270332777,-2.26768315199996],[-80.600133335,-2.79801901699996],[-80.600540364,-2.39731810599995],[-80.56982154,-1.59702567299996],[-80.2537999999999,-0.851110268999939],[-80.07,-0.908199999999963],[-78.54982154,2.00297432700006],[-77.44982154,1.30297432700007]]]},"properties":{"OBJECTID_1":15,"MMax":7,"Nombre":"BGN","Depth":0,"Range":35,"Tipo":"Background sources","type":1,"DMin":0,"DMax":35,"Dip":90,"Rake":180,"Strike":30,"Fuente":"BGN","a":4.5245,"b":"1.09","λMw_45":0.428,"M0_for_GR":4.8,"Number_of_events_M0":10,"Mmax_obs":6.4,"Depth_range":"0-35"}},{"type":"Feature","geometry":{"type":"Polygon","coordinates":[[[-80.600133335,-2.79801901699996],[-80.6,-3.59999999999998],[-81.883546468,-4.62918959099995],[-81.7999999999999,-3.99999999999994],[-81.4999999999999,-2.87999999999994],[-80.600540364,-2.39731810599995],[-80.600133335,-2.79801901699996]]]},"properties":{"OBJECTID_1":16,"MMax":7.8,"Nombre":"Golfo de Guayaquil","Depth":0,"Range":40,"Tipo":"Crustal Sources","type":2,"DMin":0,"DMax":40,"Dip":12,"Rake":90,"Strike":0,"Fuente":"Golfo de Guayaquil","a":3.4765,"b":"0.84","λMw_45":0.492,"M0_for_GR":4.5,"Number_of_events_M0":25,"Mmax_obs":7.5,"Depth_range":"0-40"}},{"type":"Feature","geometry":{"type":"Polygon","coordinates":[[[-78.551239918,2.00025810200002],[-78.54982154,2.00297432700006],[-77.3,4.00000000000006],[-75.3,4.00000000000006],[-76.6299999999999,2.20000000000004],[-78.551239918,2.00025810200002]]]},"properties":{"OBJECTID_1":17,"MMax":7.2,"Nombre":"Caldas Cluster","Depth":50,"Range":250,"Tipo":"In-slab sources","type":3,"DMin":35,"DMax":250,"Dip":45,"Rake":90,"Strike":90,"Fuente":"Caldas Cluster","a":4.7058,"b":"1.05","λMw_45":0.987,"M0_for_GR":4.8,"Number_of_events_M0":24,"Mmax_obs":6.7,"Depth_range":"35-250"}},{"type":"Feature","geometry":{"type":"Polygon","coordinates":[[[-78.861508814,-1.50387052299995],[-79.46896,-1.81199],[-79.6916,-1.92793999999998],[-80.04464,-2.11059999999998],[-80.6,-2.39999999999998],[-80.5699999999999,-1.59999999999998],[-80.2537999999999,-0.851110268999939],[-80.07,-0.908199999999963],[-78.551239918,2.00025810200002],[-76.6299999999999,2.20000000000004],[-77.167171422,1.24738073000004],[-77.505109911,0.648080947000018],[-77.820645096,0.0885111610000315],[-78.097720168,-0.402853497999951],[-78.4267148709999,-0.98629238099994],[-78.66261,-1.39798999999993],[-78.782353719,-1.46306892799992],[-78.861508814,-1.50387052299995]]]},"properties":{"OBJECTID_1":18,"MMax":7.2,"Nombre":"SubVolcanicArc","Depth":50,"Range":130,"Tipo":"In-slab sources","type":3,"DMin":35,"DMax":180,"Dip":45,"Rake":-90,"Strike":80,"Fuente":"SubVolcanicArc","a":5.071,"b":"1.11","λMw_45":1.141,"M0_for_GR":4.5,"Number_of_events_M0":55,"Mmax_obs":6.7,"Depth_range":"35-180"}},{"type":"Feature","geometry":{"type":"Polygon","coordinates":[[[-80.4,-5.78999999999996],[-80.56,-4.96999999999997],[-80.66,-4.11999999999995],[-80.6007499999999,-3.59999999999998],[-80.6,-2.39999999999998],[-80.04464,-2.11059999999998],[-79.6916,-1.92793999999998],[-77.6,-2.59999999999997],[-76.55,-3.79999999999994],[-76.53,-5.99999999999996],[-80.4,-5.78999999999996]]]},"properties":{"OBJECTID_1":19,"MMax":7.7,"Nombre":"Loja","Depth":35,"Range":100,"Tipo":"In-slab sources","type":3,"DMin":35,"DMax":100,"Dip":40,"Rake":-90,"Strike":330,"Fuente":"Loja","a":6.8273,"b":"1.33","λMw_45":6.718,"M0_for_GR":4.8,"Number_of_events_M0":130,"Mmax_obs":7.2,"Depth_range":"35-100"}},{"type":"Feature","geometry":{"type":"Polygon","coordinates":[[[-76.9904799999999,-3.00574999999998],[-78.190482156,-2.79999999999995],[-79.682084679,-1.92794214899993],[-78.265360389,-1.18775702699998],[-77.190482156,-0.99999999999995],[-75.540482156,-1.84999999999997],[-75.190482156,-2.64999999999999],[-76.9904799999999,-3.00574999999998]]]},"properties":{"OBJECTID_1":20,"MMax":8,"Nombre":"Puyo","Depth":130,"Range":300,"Tipo":"In-slab sources","type":3,"DMin":130,"DMax":300,"Dip":70,"Rake":-90,"Strike":310,"Fuente":"Puyo","a":5.3015,"b":"1.05","λMw_45":3.6,"M0_for_GR":4.8,"Number_of_events_M0":88,"Mmax_obs":7.5,"Depth_range":"130-300"}},{"type":"Feature","geometry":{"type":"Polygon","coordinates":[[[-77.4,-5.99999999999996],[-77.4,-4.99999999999996],[-77.6299999999999,-3.41999999999997],[-76.9904799999999,-3.00574999999998],[-75.2,-2.64999999999999],[-74.9,-5.99999999999996],[-77.4,-5.99999999999996]]]},"properties":{"OBJECTID_1":21,"MMax":8,"Nombre":"Loreto","Depth":130,"Range":180,"Tipo":"In-slab sources","type":3,"DMin":130,"DMax":180,"Dip":40,"Rake":-90,"Strike":345,"Fuente":"Loreto","a":7.3757,"b":"1.62","λMw_45":1.279,"M0_for_GR":4.8,"Number_of_events_M0":20,"Mmax_obs":7.5,"Depth_range":"130-180"}},{"type":"Feature","geometry":{"type":"Polygon","coordinates":[[[-78.6,-5.99999999999996],[-78.6,-4.99999999999996],[-80.04464,-2.11059999999998],[-79.6916,-1.92793999999998],[-79.468954915,-1.81198742099998],[-77.05,-2.24999999999995],[-76.2,-2.99999999999994],[-75.9,-4.99999999999996],[-75.9999999999999,-5.99999999999996],[-78.6,-5.99999999999996]]]},"properties":{"OBJECTID_1":22,"MMax":7.8,"Nombre":"Morona","Depth":100,"Range":130,"Tipo":"In-slab sources","type":3,"DMin":100,"DMax":130,"Dip":40,"Rake":-90,"Strike":335,"Fuente":"Morona","a":4.4742,"b":"0.89","λMw_45":2.958,"M0_for_GR":4.8,"Number_of_events_M0":84,"Mmax_obs":7.3,"Depth_range":"100-130"}}]}