{"type":"FeatureCollection","features":[{"type":"Feature","geometry":{"type":"Polygon","coordinates":[[[-77.9364032519999,-1.50632420299996],[-78.4,-1.59999999999998],[-78.236890143,-0.950786610999956],[-77.97,0.100000000000019],[-77.58,0.0700000000000465],[-77.8565320129999,-1.12466238299995],[-77.9364032519999,-1.50632420299996]]]},"properties":{"Fuente":"Cosanga","a":2.7701,"b":"0.71","λMw_45":0.3866,"M0_for_GR":4.80000019,"Number_of_events_M0":13,"Mmax_obs":7.0999999,"Depth_range":"0-35","OBJECTID_1":1,"Nombre":"Cosanga","Tipo":"Crustal Sources","Dip":25,"Rake":90,"Strike":195,"MMax":7.80000019}},{"type":"Feature","geometry":{"type":"Polygon","coordinates":[[[-77.2,-5.99999999999996],[-78.1,-4.99999999999996],[-77.6,-4.89999999999999],[-77.296673794,-3.95487051499993],[-75.9,-5.99999999999996],[-77.2,-5.99999999999996]]]},"properties":{"Fuente":"Moyobamba","a":4.4484,"b":"0.98","λMw_45":1.082,"M0_for_GR":4.80000019,"Number_of_events_M0":28,"Mmax_obs":6.9000001,"Depth_range":"0-35","OBJECTID_1":2,"Nombre":"Moyobamba","Tipo":"Crustal Sources","Dip":25,"Rake":90,"Strike":160,"MMax":7.69999981}},{"type":"Feature","geometry":{"type":"Polygon","coordinates":[[[-77.6,-4.89999999999999],[-78.1,-4.99999999999996],[-78.6199999999999,-2.81999999999994],[-78.4,-1.59999999999998],[-77.9364032519999,-1.50632420299996],[-77.8565320129999,-1.12466238299995],[-77.340900368,-1.01535521999994],[-77.05,-1.39999999999999],[-77.0569377469999,-3.21354859099995],[-77.296673794,-3.95487051499993],[-77.6,-4.89999999999999]]]},"properties":{"Fuente":"Cutucú","a":5.4443,"b":"1.17","λMw_45":1.436,"M0_for_GR":4.5,"Number_of_events_M0":69,"Mmax_obs":7,"Depth_range":"0-35","OBJECTID_1":3,"Nombre":"Cutucú","Tipo":"Crustal Sources","Dip":45,"Rake":60,"Strike":190,"MMax":7.80000019}},{"type":"Feature","geometry":{"type":"Polygon","coordinates":[[[-77.267566667,0.497296296000041],[-77.58,0.0700000000000465],[-77.97,0.100000000000019],[-77.02,1.22000000000003],[-76.77,1.17000000000005],[-77.267566667,0.497296296000041]]]},"properties":{"Fuente":"Chingual","a":3.0831,"b":"0.98*","λMw_45":0.046,"M0_for_GR":4.19999981,"Number_of_events_M0":3,"Mmax_obs":7.4000001,"Depth_range":"0-35","OBJECTID_1":4,"Nombre":"Chingual","Tipo":"Crustal Sources","Dip":90,"Rake":180,"Strike":35,"MMax":7.5999999}},{"type":"Feature","geometry":{"type":"Polygon","coordinates":[[[-77.340900368,-1.01535521999994],[-77.8565320129999,-1.12466238299995],[-77.58,0.0700000000000465],[-77.267566667,0.497296296000041],[-76.9999999999999,0.200000000000038],[-77.340900368,-1.01535521999994]]]},"properties":{"Fuente":"Napo","a":3.4369,"b":"0.98*","λMw_45":0.106,"M0_for_GR":4.5,"Number_of_events_M0":5,"Mmax_obs":5.5999999,"Depth_range":"0-35","OBJECTID_1":5,"Nombre":"Napo","Tipo":"Crustal Sources","Dip":25,"Rake":90,"Strike":195,"MMax":7.80000019}},{"type":"Feature","geometry":{"type":"Polygon","coordinates":[[[-78.4,-1.59999999999998],[-78.9,-2.24999999999995],[-79.270332777,-2.26768315199996],[-78.86563268,-1.60169754699996],[-78.4999999999999,-0.99999999999995],[-78.236890143,-0.950786610999956],[-78.4,-1.59999999999998]]]},"properties":{"Fuente":"Pallatanga","a":2.8012,"b":"0.73","λMw_45":0.341,"M0_for_GR":4.5,"Number_of_events_M0":18,"Mmax_obs":7.5999999,"Depth_range":"0-35","OBJECTID_1":6,"Nombre":"Pallatanga","Tipo":"Crustal Sources","Dip":90,"Rake":180,"Strike":30,"MMax":7.9000001}},{"type":"Feature","geometry":{"type":"Polygon","coordinates":[[[-78.249209334,0.127274127000008],[-78.4999999999999,-0.99999999999995],[-78.86563268,-1.60169754699996],[-78.8,-0.398017596999996],[-78.4299999999999,0.150000000000029],[-78.249209334,0.127274127000008]]]},"properties":{"Fuente":"Quito-Latacunga","a":2.6797,"b":"0.7","λMw_45":0.336,"M0_for_GR":4.5,"Number_of_events_M0":17,"Mmax_obs":6.4000001,"Depth_range":"0-35","OBJECTID_1":7,"Nombre":"Quito-Latacunga","Tipo":"Crustal Sources","Dip":55,"Rake":90,"Strike":190,"MMax":7.30000019}},{"type":"Feature","geometry":{"type":"Polygon","coordinates":[[[-80.6,-3.59999999999998],[-80.600133335,-2.79801901699996],[-79.270332777,-2.26768315199996],[-78.9,-2.24999999999995],[-80.6,-3.59999999999998]]]},"properties":{"Fuente":"Puna","a":3.583,"b":"0.98*","λMw_45":0.149,"M0_for_GR":4.5,"Number_of_events_M0":7,"Mmax_obs":5.19999981,"Depth_range":"0-35","OBJECTID_1":8,"Nombre":"Puna","Tipo":"Crustal Sources","Dip":90,"Rake":180,"Strike":60,"MMax":7.5}},{"type":"Feature","geometry":{"type":"Polygon","coordinates":[[[-77.02,1.22000000000003],[-77.97,0.100000000000019],[-78.249209334,0.127274127000008],[-78.4299999999999,0.150000000000029],[-78.8,-0.398017596999996],[-78.79982154,0.202974327000057],[-77.44982154,1.30297432700007],[-77.02,1.22000000000003]]]},"properties":{"Fuente":"El Angel","a":3.4503,"b":"0.98*","λMw_45":0.127,"M0_for_GR":4.5,"Number_of_events_M0":9,"Mmax_obs":7.19999981,"Depth_range":"0-35","OBJECTID_1":9,"Nombre":"El Angel","Tipo":"Crustal Sources","Dip":90,"Rake":180,"Strike":35,"MMax":7.69999981}},{"type":"Feature","geometry":{"type":"Polygon","coordinates":[[[-80.2537999999999,-0.851110268999939],[-80.56982154,-1.59702567299996],[-80.600540364,-2.39731810599995],[-81.4999999999999,-2.87999999999994],[-81.45,-2.29999999999996],[-81.4999999999999,-1.79999999999995],[-81.138534165,-0.512128790999953],[-80.2537999999999,-0.851110268999939]]]},"properties":{"Fuente":"La Plata","a":3.5598,"b":"0.8","λMw_45":0.915,"M0_for_GR":4.5,"Number_of_events_M0":46,"Mmax_obs":6.69999981,"Depth_range":"0-40","OBJECTID_1":10,"Nombre":"La Plata","Tipo":"Interface Sources","Dip":20,"Rake":90,"Strike":12,"MMax":8}},{"type":"Feature","geometry":{"type":"Polygon","coordinates":[[[-78.54982154,2.00297432700006],[-80.07,-0.908199999999963],[-80.2537999999999,-0.851110268999939],[-81.138534165,-0.512128790999953],[-81.029116497,-0.247530228999951],[-80.0196000189999,1.59416586400003],[-78.6,4.00000000000006],[-77.3,4.00000000000006],[-78.54982154,2.00297432700006]]]},"properties":{"Fuente":"Esmeraldas","a":4.0002,"b":"0.81","λMw_45":2.341,"M0_for_GR":4.80000019,"Number_of_events_M0":74,"Mmax_obs":8.80000019,"Depth_range":"0-50","OBJECTID_1":11,"Nombre":"Esmeraldas","Tipo":"Interface Sources","Dip":20,"Rake":90,"Strike":30,"MMax":8.80000019}},{"type":"Feature","geometry":{"type":"Polygon","coordinates":[[[-80.662042594,-5.99999999999996],[-81.689,-6.82299999999999],[-81.85,-5.99999999999996],[-81.95,-5.14999999999997],[-81.883546468,-4.62918959099995],[-80.6,-3.59999999999998],[-80.66,-4.11999999999995],[-80.6,-4.62999999999994],[-80.56,-4.96999999999997],[-80.4,-5.78999999999996],[-80.6,-5.97513964299997],[-80.662042594,-5.99999999999996]]]},"properties":{"Fuente":"Talara","a":4.3639,"b":"0.91","λMw_45":1.916,"M0_for_GR":4.80000019,"Number_of_events_M0":53,"Mmax_obs":7.0999999,"Depth_range":"0-40","OBJECTID_1":13,"Nombre":"Talara","Tipo":"Interface Sources","Dip":12,"Rake":90,"Strike":0,"MMax":8.19999981}},{"type":"Feature","geometry":{"type":"Polygon","coordinates":[[[-80.600133335,-2.79801901699996],[-80.6,-3.59999999999998],[-81.883546468,-4.62918959099995],[-81.7999999999999,-3.99999999999994],[-81.4999999999999,-2.87999999999994],[-80.600540364,-2.39731810599995],[-80.600133335,-2.79801901699996]]]},"properties":{"Fuente":"Golfo de Guayaquil","a":3.4765,"b":"0.84","λMw_45":0.492,"M0_for_GR":4.5,"Number_of_events_M0":25,"Mmax_obs":7.5,"Depth_range":"0-40","OBJECTID_1":16,"Nombre":"Golfo de Guayaquil","Tipo":"Interface Sources","Dip":12,"Rake":90,"Strike":0,"MMax":7.80000019}}]}